0 COSMOS 2251 DEB
1 37339U 93036BLF 13282.25922113  .00038834  00000-0  58775-2 0  2811
2 37339 073.9911 020.3286 0048662 190.6572 169.3574 14.73198059206396
0 COSMOS 2251 DEB
1 37339U 93036BLF 13286.67290547  .00022866  00000-0  34557-2 0  2832
2 37339 073.9926 011.7013 0048013 181.9232 178.1764 14.73407016207048
0 COSMOS 2251 DEB
1 37339U 93036BLF 13287.89505296  .00040176  00000-0  60460-2 0  2844
2 37339 073.9917 009.3122 0047683 179.0337 181.0937 14.73466233207229
0 COSMOS 2251 DEB
1 37339U 93036BLF 13289.18502778  .00029454  00000-0  44329-2 0  2853
2 37339 073.9917 006.7900 0047469 176.5251 183.6262 14.73547956207415
0 COSMOS 2251 DEB
1 37339U 93036BLF 13290.20338651  .00030658  00000-0  46087-2 0  2867
2 37339 073.9917 004.7989 0047270 174.3499 185.8218 14.73595540207563
0 COSMOS 2251 DEB
1 37339U 93036BLF 13292.17211485  .00022717  00000-0  34145-2 0  2870
2 37339 073.9912 000.9492 0046518 170.8878 189.3150 14.73691924207850
0 COSMOS 2251 DEB
1 37339U 93036BLF 13293.59766993  .00024210  00000-0  36326-2 0  2880
2 37339 073.9933 358.1638 0046597 167.0943 193.1435 14.73750261208064
0 COSMOS 2251 DEB
1 37339U 93036BLF 13295.15892568  .00025924  00000-0  38836-2 0  2894
2 37339 073.9910 355.1085 0046256 163.8171 196.4492 14.73815166208291
